{"type": "FeatureCollection", "features": [ {"type": "Feature", "properties": {"norad_id": 35480, "name": "IRIDIUM 33 DEB", "group": "iridium-33-debris", "lat": -48.48856812626927, "lon": 22.319612559884337, "alt_km": 743.9289104855434, "timestamp": "2025-12-09T04:51:47.877065+00:00", "meta": {"OBJECT_NAME": "IRIDIUM 33 DEB", "OBJECT_ID": "1997-051QA", "EPOCH": "2025-12-01T21:29:27.496896", "MEAN_MOTION": 14.49686619, "ECCENTRICITY": 0.00155495, "INCLINATION": 86.3575, "RA_OF_ASC_NODE": 29.6125, "ARG_OF_PERICENTER": 136.7189, "MEAN_ANOMALY": 223.524, "EPHEMERIS_TYPE": 0, "CLASSIFICATION_TYPE": "U", "NORAD_CAT_ID": 35480, "ELEMENT_SET_NO": 999, "REV_AT_EPOCH": 86874, "BSTAR": 0.000651702, "MEAN_MOTION_DOT": 2.53e-05, "MEAN_MOTION_DDOT": 0}, "tle": {"line1": "1 35480U 97051QA  25335.89545714  .00002530  00000+0  65170-3 0  9994", "line2": "2 35480  86.3575  29.6125 0015549 136.7189 223.5240 14.49686619868745"}}, "geometry": {"type": "Point", "coordinates": [22.319612559884337, -48.48856812626927]}}, {"type": "Feature", "properties": {"norad_id": 35484, "name": "IRIDIUM 33 DEB", "group": "iridium-33-debris", "lat": -37.64398421222968, "lon": 177.21357383401127, "alt_km": 576.1169625690463, "timestamp": "2025-12-09T04:51:47.877081+00:00", "meta": {"OBJECT_NAME": "IRIDIUM 33 DEB", "OBJECT_ID": "1997-051QE", "EPOCH": "2025-12-08T18:16:45.444576", "MEAN_MOTION": 14.98255885, "ECCENTRICITY": 0.0023144, "INCLINATION": 86.3606, "RA_OF_ASC_NODE": 354.6057, "ARG_OF_PERICENTER": 138.3484, "MEAN_ANOMALY": 221.9516, "EPHEMERIS_TYPE": 0, "CLASSIFICATION_TYPE": "U", "NORAD_CAT_ID": 35484, "ELEMENT_SET_NO": 999, "REV_AT_EPOCH": 61956, "BSTAR": 0.0033289, "MEAN_MOTION_DOT": 0.00039967, "MEAN_MOTION_DDOT": 0}, "tle": {"line1": "1 35484U 97051QE  25342.76163709  .00039967  00000+0  33289-2 0  9991", "line2": "2 35484  86.3606 354.6057 0023144 138.3484 221.9516 14.98255885619568"}}, "geometry": {"type": "Point", "coordinates": [177.21357383401127, -37.64398421222968]}}, {"type": "Feature", "properties": {"norad_id": 35488, "name": "IRIDIUM 33 DEB", "group": "iridium-33-debris", "lat": 16.001634218122344, "lon": 121.45229744166042, "alt_km": 628.2252010608008, "timestamp": "2025-12-09T04:51:47.877097+00:00", "meta": {"OBJECT_NAME": "IRIDIUM 33 DEB", "OBJECT_ID": "1997-051QJ", "EPOCH": "2025-12-08T03:50:11.826240", "MEAN_MOTION": 14.82876348, "ECCENTRICITY": 0.00303438, "INCLINATION": 86.325, "RA_OF_ASC_NODE": 302.9889, "ARG_OF_PERICENTER": 57.3882, "MEAN_ANOMALY": 303.0263, "EPHEMERIS_TYPE": 0, "CLASSIFICATION_TYPE": "U", "NORAD_CAT_ID": 35488, "ELEMENT_SET_NO": 999, "REV_AT_EPOCH": 88198, "BSTAR": 0.001993883, "MEAN_MOTION_DOT": 0.00016327, "MEAN_MOTION_DDOT": 0}, "tle": {"line1": "1 35488U 97051QJ  25342.15985910  .00016327  00000+0  19939-2 0  9995", "line2": "2 35488  86.3250 302.9889 0030343  57.3882 303.0263 14.82876348881981"}}, "geometry": {"type": "Point", "coordinates": [121.45229744166042, 16.001634218122344]}}, {"type": "Feature", "properties": {"norad_id": 35616, "name": "IRIDIUM 33 DEB", "group": "iridium-33-debris", "lat": -21.491766284718057, "lon": -14.058812383997068, "alt_km": 635.8423217363079, "timestamp": "2025-12-09T04:51:47.877116+00:00", "meta": {"OBJECT_NAME": "IRIDIUM 33 DEB", "OBJECT_ID": "1997-051QN", "EPOCH": "2025-12-08T11:07:50.751840", "MEAN_MOTION": 14.81642207, "ECCENTRICITY": 0.00095137, "INCLINATION": 86.3551, "RA_OF_ASC_NODE": 347.7164, "ARG_OF_PERICENTER": 179.1989, "MEAN_ANOMALY": 180.925, "EPHEMERIS_TYPE": 0, "CLASSIFICATION_TYPE": "U", "NORAD_CAT_ID": 35616, "ELEMENT_SET_NO": 999, "REV_AT_EPOCH": 87511, "BSTAR": 0.0020633393, "MEAN_MOTION_DOT": 0.00016284, "MEAN_MOTION_DDOT": 0}, "tle": {"line1": "1 35616U 97051QN  25342.46378185  .00016284  00000+0  20633-2 0  9997", "line2": "2 35616  86.3551 347.7164 0009513 179.1989 180.9250 14.81642207875117"}}, "geometry": {"type": "Point", "coordinates": [-14.058812383997068, -21.491766284718057]}}, {"type": "Feature", "properties": {"norad_id": 35618, "name": "IRIDIUM 33 DEB", "group": "iridium-33-debris", "lat": 60.4951104800127, "lon": 168.55508507267967, "alt_km": 710.8267010060354, "timestamp": "2025-12-09T04:51:47.877133+00:00", "meta": {"OBJECT_NAME": "IRIDIUM 33 DEB", "OBJECT_ID": "1997-051QQ", "EPOCH": "2025-12-05T07:42:53.148672", "MEAN_MOTION": 14.52258119, "ECCENTRICITY": 0.00302089, "INCLINATION": 86.3407, "RA_OF_ASC_NODE": 356.7447, "ARG_OF_PERICENTER": 46.3254, "MEAN_ANOMALY": 314.0448, "EPHEMERIS_TYPE": 0, "CLASSIFICATION_TYPE": "U", "NORAD_CAT_ID": 35618, "ELEMENT_SET_NO": 999, "REV_AT_EPOCH": 65286, "BSTAR": 0.00091388234, "MEAN_MOTION_DOT": 3.753e-05, "MEAN_MOTION_DDOT": 0}, "tle": {"line1": "1 35618U 97051QQ  25339.32144848  .00003753  00000+0  91388-3 0  9990", "line2": "2 35618  86.3407 356.7447 0030208  46.3254 314.0448 14.52258119652865"}}, "geometry": {"type": "Point", "coordinates": [168.55508507267967, 60.4951104800127]}}, {"type": "Feature", "properties": {"norad_id": 35620, "name": "IRIDIUM 33 DEB", "group": "iridium-33-debris", "lat": -75.53541803555416, "lon": -155.23205397672393, "alt_km": 673.6467435243567, "timestamp": "2025-12-09T04:51:47.877149+00:00", "meta": {"OBJECT_NAME": "IRIDIUM 33 DEB", "OBJECT_ID": "1997-051QS", "EPOCH": "2025-12-08T09:10:03.259488", "MEAN_MOTION": 14.37817712, "ECCENTRICITY": 0.01428944, "INCLINATION": 86.3872, "RA_OF_ASC_NODE": 219.2913, "ARG_OF_PERICENTER": 273.357, "MEAN_ANOMALY": 85.129, "EPHEMERIS_TYPE": 0, "CLASSIFICATION_TYPE": "U", "NORAD_CAT_ID": 35620, "ELEMENT_SET_NO": 999, "REV_AT_EPOCH": 59903, "BSTAR": 0.0061742604, "MEAN_MOTION_DOT": 0.00020996, "MEAN_MOTION_DDOT": 0}, "tle": {"line1": "1 35620U 97051QS  25342.38198217  .00020996  00000+0  61743-2 0  9991", "line2": "2 35620  86.3872 219.2913 0142894 273.3570  85.1290 14.37817712599036"}}, "geometry": {"type": "Point", "coordinates": [-155.23205397672393, -75.53541803555416]}}, {"type": "Feature", "properties": {"norad_id": 35622, "name": "IRIDIUM 33 DEB", "group": "iridium-33-debris", "lat": -64.9192255651756, "lon": 93.49666783565404, "alt_km": 562.4238491921569, "timestamp": "2025-12-09T04:51:47.877166+00:00", "meta": {"OBJECT_NAME": "IRIDIUM 33 DEB", "OBJECT_ID": "1997-051QU", "EPOCH": "2025-12-08T18:19:37.394400", "MEAN_MOTION": 15.03927643, "ECCENTRICITY": 0.0007585, "INCLINATION": 86.2056, "RA_OF_ASC_NODE": 265.5603, "ARG_OF_PERICENTER": 342.6559, "MEAN_ANOMALY": 47.239, "EPHEMERIS_TYPE": 0, "CLASSIFICATION_TYPE": "U", "NORAD_CAT_ID": 35622, "ELEMENT_SET_NO": 999, "REV_AT_EPOCH": 87300, "BSTAR": 0.0061818, "MEAN_MOTION_DOT": 0.00086206, "MEAN_MOTION_DDOT": 0}, "tle": {"line1": "1 35622U 97051QU  25342.76362725  .00086206  00000+0  61818-2 0  9991", "line2": "2 35622  86.2056 265.5603 0007585 342.6559  47.2390 15.03927643873006"}}, "geometry": {"type": "Point", "coordinates": [93.49666783565404, -64.9192255651756]}}, {"type": "Feature", "properties": {"norad_id": 35628, "name": "IRIDIUM 33 DEB", "group": "iridium-33-debris", "lat": -2.2887821735900706, "lon": -169.20115508962814, "alt_km": 680.0906581009694, "timestamp": "2025-12-09T04:51:47.877182+00:00", "meta": {"OBJECT_NAME": "IRIDIUM 33 DEB", "OBJECT_ID": "1997-051RA", "EPOCH": "2025-12-08T19:51:11.189376", "MEAN_MOTION": 14.67493768, "ECCENTRICITY": 0.0010931, "INCLINATION": 86.3576, "RA_OF_ASC_NODE": 10.8203, "ARG_OF_PERICENTER": 356.3974, "MEAN_ANOMALY": 3.7159, "EPHEMERIS_TYPE": 0, "CLASSIFICATION_TYPE": "U", "NORAD_CAT_ID": 35628, "ELEMENT_SET_NO": 999, "REV_AT_EPOCH": 86389, "BSTAR": 0.0020098, "MEAN_MOTION_DOT": 0.00011424, "MEAN_MOTION_DDOT": 0}, "tle": {"line1": "1 35628U 97051RA  25342.82721284  .00011424  00000+0  20098-2 0  9998", "line2": "2 35628  86.3576  10.8203 0010931 356.3974   3.7159 14.67493768863890"}}, "geometry": {"type": "Point", "coordinates": [-169.20115508962814, -2.2887821735900706]}}, {"type": "Feature", "properties": {"norad_id": 35631, "name": "IRIDIUM 33 DEB", "group": "iridium-33-debris", "lat": -24.58800622922704, "lon": 20.834992806053783, "alt_km": 751.8089725221571, "timestamp": "2025-12-09T04:51:47.877198+00:00", "meta": {"OBJECT_NAME": "IRIDIUM 33 DEB", "OBJECT_ID": "1997-051RD", "EPOCH": "2025-12-06T21:23:47.071392", "MEAN_MOTION": 14.47286545, "ECCENTRICITY": 0.00185223, "INCLINATION": 86.3689, "RA_OF_ASC_NODE": 23.4943, "ARG_OF_PERICENTER": 135.5581, "MEAN_ANOMALY": 46.1978, "EPHEMERIS_TYPE": 0, "CLASSIFICATION_TYPE": "U", "NORAD_CAT_ID": 35631, "ELEMENT_SET_NO": 999, "REV_AT_EPOCH": 87112, "BSTAR": 0.00062002851, "MEAN_MOTION_DOT": 2.292e-05, "MEAN_MOTION_DDOT": 0}, "tle": {"line1": "1 35631U 97051RD  25340.89151703  .00002292  00000+0  62003-3 0  9996", "line2": "2 35631  86.3689  23.4943 0018522 135.5581  46.1978 14.47286545871121"}}, "geometry": {"type": "Point", "coordinates": [20.834992806053783, -24.58800622922704]}}, {"type": "Feature", "properties": {"norad_id": 35680, "name": "IRIDIUM 33 DEB", "group": "iridium-33-debris", "lat": -77.09588027519574, "lon": 5.774398568704213, "alt_km": 722.6193013353368, "timestamp": "2025-12-09T04:51:47.877214+00:00", "meta": {"OBJECT_NAME": "IRIDIUM 33 DEB", "OBJECT_ID": "1997-051RJ", "EPOCH": "2025-12-07T09:19:47.246592", "MEAN_MOTION": 14.20776466, "ECCENTRICITY": 0.01503971, "INCLINATION": 86.1018, "RA_OF_ASC_NODE": 23.8914, "ARG_OF_PERICENTER": 295.6462, "MEAN_ANOMALY": 74.8204, "EPHEMERIS_TYPE": 0, "CLASSIFICATION_TYPE": "U", "NORAD_CAT_ID": 35680, "ELEMENT_SET_NO": 999, "REV_AT_EPOCH": 60625, "BSTAR": 0.0056071361, "MEAN_MOTION_DOT": 0.00013594, "MEAN_MOTION_DDOT": 0}, "tle": {"line1": "1 35680U 97051RJ  25341.38874128  .00013594  00000+0  56071-2 0  9992", "line2": "2 35680  86.1018  23.8914 0150397 295.6462  74.8204 14.20776466606251"}}, "geometry": {"type": "Point", "coordinates": [5.774398568704213, -77.09588027519574]}}]}